0 THOR ABLESTAR DEB
1 00406U 61015EF  13281.49982068  .00000441  00000-0  59630-3 0  3274
2 00406 066.7825 075.7337 0127513 247.0409 172.9850 13.65365828588115
0 THOR ABLESTAR DEB
1 00406U 61015EF  13283.78153575  .00000450  00000-0  60630-3 0  3284
2 00406 066.7828 070.3921 0127512 245.6045 228.2642 13.65369411588427
0 THOR ABLESTAR DEB
1 00406U 61015EF  13285.82444596  .00000464  00000-0  62278-3 0  3293
2 00406 066.7833 065.6096 0127511 244.3248 189.7652 13.65371637588709
0 THOR ABLESTAR DEB
1 00406U 61015EF  13288.02805709  .00000637  00000-0  82295-3 0  3300
2 00406 066.7836 060.4510 0127574 242.9575 221.1650 13.65374698589005
0 THOR ABLESTAR DEB
1 00406U 61015EF  13290.36788786  .00000601  00000-0  78200-3 0  3318
2 00406 066.7839 054.9737 0127568 241.5074 202.1509 13.65377773589323
0 THOR ABLESTAR DEB
1 00406U 61015EF  13292.48946546  .00000640  00000-0  82678-3 0  3321
2 00406 066.7840 050.0075 0127592 240.2053 190.3667 13.65380815589613
0 THOR ABLESTAR DEB
1 00406U 61015EF  13294.62138954  .00000706  00000-0  90313-3 0  3334
2 00406 066.7840 045.0169 0127569 238.8890 229.4699 13.65384385589904
